{
  "timestamp": "2025-10-04T12:28:05.039749",
  "data": [
    {
      "OBJECT_NAME": "UNKNOWN",
      "OBJECT_ID": "",
      "EPOCH": "2025-09-23T11:30:54.297504",
      "MEAN_MOTION": 12.96495988,
      "ECCENTRICITY": 0.00204007,
      "INCLINATION": 90.2477,
      "RA_OF_ASC_NODE": 344.1802,
      "ARG_OF_PERICENTER": 78.2729,
      "MEAN_ANOMALY": 282.0678,
      "EPHEMERIS_TYPE": 0,
      "CLASSIFICATION_TYPE": "U",
      "NORAD_CAT_ID": 270081,
      "ELEMENT_SET_NO": 999,
      "REV_AT_EPOCH": 27543,
      "BSTAR": 0.0002675621,
      "MEAN_MOTION_DOT": 8.4e-7,
      "MEAN_MOTION_DDOT": 0
    },
    {
      "OBJECT_NAME": "UNKNOWN",
      "OBJECT_ID": "",
      "EPOCH": "2025-09-22T08:37:47.651520",
      "MEAN_MOTION": 13.97974778,
      "ECCENTRICITY": 0.02208879,
      "INCLINATION": 74.0133,
      "RA_OF_ASC_NODE": 138.795,
      "ARG_OF_PERICENTER": 318.5915,
      "MEAN_ANOMALY": 39.8653,
      "EPHEMERIS_TYPE": 0,
      "CLASSIFICATION_TYPE": "U",
      "NORAD_CAT_ID": 270082,
      "ELEMENT_SET_NO": 999,
      "REV_AT_EPOCH": 29592,
      "BSTAR": 0.001428457,
      "MEAN_MOTION_DOT": 2.47e-5,
      "MEAN_MOTION_DDOT": 0
    },
    {
      "OBJECT_NAME": "UNKNOWN",
      "OBJECT_ID": "",
      "EPOCH": "2025-09-24T08:28:34.409856",
      "MEAN_MOTION": 13.76346479,
      "ECCENTRICITY": 0.04039176,
      "INCLINATION": 72.8727,
      "RA_OF_ASC_NODE": 307.06,
      "ARG_OF_PERICENTER": 19.0364,
      "MEAN_ANOMALY": 342.5359,
      "EPHEMERIS_TYPE": 0,
      "CLASSIFICATION_TYPE": "U",
      "NORAD_CAT_ID": 270084,
      "ELEMENT_SET_NO": 999,
      "REV_AT_EPOCH": 28903,
      "BSTAR": 0.00442496,
      "MEAN_MOTION_DOT": 7.861e-5,
      "MEAN_MOTION_DDOT": 0
    },
    {
      "OBJECT_NAME": "UNKNOWN",
      "OBJECT_ID": "",
      "EPOCH": "2025-10-02T12:25:27.404256",
      "MEAN_MOTION": 12.80037072,
      "ECCENTRICITY": 0.06475793,
      "INCLINATION": 99.269,
      "RA_OF_ASC_NODE": 193.5346,
      "ARG_OF_PERICENTER": 133.2792,
      "MEAN_ANOMALY": 232.4234,
      "EPHEMERIS_TYPE": 0,
      "CLASSIFICATION_TYPE": "U",
      "NORAD_CAT_ID": 270085,
      "ELEMENT_SET_NO": 999,
      "REV_AT_EPOCH": 27233,
      "BSTAR": 0.0076972114,
      "MEAN_MOTION_DOT": 4.234e-5,
      "MEAN_MOTION_DDOT": 0
    },
    {
      "OBJECT_NAME": "UNKNOWN",
      "OBJECT_ID": "",
      "EPOCH": "2025-10-01T16:33:13.720032",
      "MEAN_MOTION": 14.85276469,
      "ECCENTRICITY": 0.0025182,
      "INCLINATION": 86.3454,
      "RA_OF_ASC_NODE": 71.9183,
      "ARG_OF_PERICENTER": 338.2072,
      "MEAN_ANOMALY": 21.8078,
      "EPHEMERIS_TYPE": 0,
      "CLASSIFICATION_TYPE": "U",
      "NORAD_CAT_ID": 270086,
      "ELEMENT_SET_NO": 999,
      "REV_AT_EPOCH": 7085,
      "BSTAR": 0.0090755912,
      "MEAN_MOTION_DOT": 0.00079159,
      "MEAN_MOTION_DDOT": 0
    },
    {
      "OBJECT_NAME": "UNKNOWN",
      "OBJECT_ID": "",
      "EPOCH": "2025-09-23T20:58:00.360192",
      "MEAN_MOTION": 12.81206119,
      "ECCENTRICITY": 0.07232742,
      "INCLINATION": 72.8154,
      "RA_OF_ASC_NODE": 312.536,
      "ARG_OF_PERICENTER": 163.973,
      "MEAN_ANOMALY": 198.5593,
      "EPHEMERIS_TYPE": 0,
      "CLASSIFICATION_TYPE": "U",
      "NORAD_CAT_ID": 270087,
      "ELEMENT_SET_NO": 999,
      "REV_AT_EPOCH": 27128,
      "BSTAR": 0.0045677644,
      "MEAN_MOTION_DOT": 3.223e-5,
      "MEAN_MOTION_DDOT": 0
    },
    {
      "OBJECT_NAME": "UNKNOWN",
      "OBJECT_ID": "",
      "EPOCH": "2025-09-22T19:09:09.978624",
      "MEAN_MOTION": 12.2595764,
      "ECCENTRICITY": 0.01372698,
      "INCLINATION": 74.0233,
      "RA_OF_ASC_NODE": 285.7213,
      "ARG_OF_PERICENTER": 274.7453,
      "MEAN_ANOMALY": 83.792,
      "EPHEMERIS_TYPE": 0,
      "CLASSIFICATION_TYPE": "U",
      "NORAD_CAT_ID": 270088,
      "ELEMENT_SET_NO": 999,
      "REV_AT_EPOCH": 26067,
      "BSTAR": 0.00055313067,
      "MEAN_MOTION_DOT": 4.8e-7,
      "MEAN_MOTION_DDOT": 0
    },
    {
      "OBJECT_NAME": "UNKNOWN",
      "OBJECT_ID": "",
      "EPOCH": "2025-09-30T02:41:18.169440",
      "MEAN_MOTION": 14.23728172,
      "ECCENTRICITY": 0.00351623,
      "INCLINATION": 98.8411,
      "RA_OF_ASC_NODE": 221.3283,
      "ARG_OF_PERICENTER": 285.6038,
      "MEAN_ANOMALY": 74.1261,
      "EPHEMERIS_TYPE": 0,
      "CLASSIFICATION_TYPE": "U",
      "NORAD_CAT_ID": 270089,
      "ELEMENT_SET_NO": 999,
      "REV_AT_EPOCH": 30355,
      "BSTAR": 0.00031922639,
      "MEAN_MOTION_DOT": 6.88e-6,
      "MEAN_MOTION_DDOT": 0
    },
    {
      "OBJECT_NAME": "UNKNOWN",
      "OBJECT_ID": "",
      "EPOCH": "2025-10-01T09:12:56.399904",
      "MEAN_MOTION": 14.47284379,
      "ECCENTRICITY": 0.00113457,
      "INCLINATION": 97.9921,
      "RA_OF_ASC_NODE": 143.361,
      "ARG_OF_PERICENTER": 328.2522,
      "MEAN_ANOMALY": 31.7987,
      "EPHEMERIS_TYPE": 0,
      "CLASSIFICATION_TYPE": "U",
      "NORAD_CAT_ID": 270090,
      "ELEMENT_SET_NO": 999,
      "REV_AT_EPOCH": 30802,
      "BSTAR": 0.0003611976,
      "MEAN_MOTION_DOT": 1.282e-5,
      "MEAN_MOTION_DDOT": 0
    },
    {
      "OBJECT_NAME": "UNKNOWN",
      "OBJECT_ID": "",
      "EPOCH": "2025-09-19T12:31:19.988832",
      "MEAN_MOTION": 12.95467614,
      "ECCENTRICITY": 0.00333287,
      "INCLINATION": 90.2447,
      "RA_OF_ASC_NODE": 4.0984,
      "ARG_OF_PERICENTER": 129.4591,
      "MEAN_ANOMALY": 230.9486,
      "EPHEMERIS_TYPE": 0,
      "CLASSIFICATION_TYPE": "U",
      "NORAD_CAT_ID": 270091,
      "ELEMENT_SET_NO": 999,
      "REV_AT_EPOCH": 27496,
      "BSTAR": 0.00093971326,
      "MEAN_MOTION_DOT": 2.73e-6,
      "MEAN_MOTION_DDOT": 0
    },
    {
      "OBJECT_NAME": "UNKNOWN",
      "OBJECT_ID": "",
      "EPOCH": "2025-10-02T11:15:58.107456",
      "MEAN_MOTION": 12.92531459,
      "ECCENTRICITY": 0.00286097,
      "INCLINATION": 90.2444,
      "RA_OF_ASC_NODE": 0.3421,
      "ARG_OF_PERICENTER": 231.2557,
      "MEAN_ANOMALY": 128.6003,
      "EPHEMERIS_TYPE": 0,
      "CLASSIFICATION_TYPE": "U",
      "NORAD_CAT_ID": 270093,
      "ELEMENT_SET_NO": 999,
      "REV_AT_EPOCH": 27597,
      "BSTAR": 0.00088161714,
      "MEAN_MOTION_DOT": 2.46e-6,
      "MEAN_MOTION_DDOT": 0
    },
    {
      "OBJECT_NAME": "UNKNOWN",
      "OBJECT_ID": "",
      "EPOCH": "2025-10-01T16:34:49.607616",
      "MEAN_MOTION": 12.23896066,
      "ECCENTRICITY": 0.01205571,
      "INCLINATION": 102.5694,
      "RA_OF_ASC_NODE": 250.4365,
      "ARG_OF_PERICENTER": 26.948,
      "MEAN_ANOMALY": 333.7767,
      "EPHEMERIS_TYPE": 0,
      "CLASSIFICATION_TYPE": "U",
      "NORAD_CAT_ID": 270094,
      "ELEMENT_SET_NO": 999,
      "REV_AT_EPOCH": 26128,
      "BSTAR": 0.0010454387,
      "MEAN_MOTION_DOT": 7.1e-7,
      "MEAN_MOTION_DDOT": 0
    },
    {
      "OBJECT_NAME": "UNKNOWN",
      "OBJECT_ID": "",
      "EPOCH": "2025-09-22T13:32:18.340224",
      "MEAN_MOTION": 12.9721754,
      "ECCENTRICITY": 0.00271644,
      "INCLINATION": 90.2519,
      "RA_OF_ASC_NODE": 5.8226,
      "ARG_OF_PERICENTER": 82.8111,
      "MEAN_ANOMALY": 277.6096,
      "EPHEMERIS_TYPE": 0,
      "CLASSIFICATION_TYPE": "U",
      "NORAD_CAT_ID": 270095,
      "ELEMENT_SET_NO": 999,
      "REV_AT_EPOCH": 27554,
      "BSTAR": 0.0017365894,
      "MEAN_MOTION_DOT": 5.11e-6,
      "MEAN_MOTION_DDOT": 0
    }
  ]
}
