1 T0081U          25266.47979511  .00000084  00000-0  26756-3 0  9994
2 T0081  90.2477 344.1802 0020401  78.2729 282.0678 12.96495988275439
1 T0082U          25265.35957930  .00002470  00000-0  14285-2 0  9996
2 T0082  74.0133 138.7950 0220888 318.5915  39.8653 13.97974778295926
1 T0084U          25267.35317604  .00007861  00000-0  44250-2 0  9992
2 T0084  72.8727 307.0600 0403918  19.0364 342.5359 13.76346479289034
1 T0085U          25275.51767829  .00004234  00000-0  76972-2 0  9995
2 T0085  99.2690 193.5346 0647579 133.2792 232.4234 12.80037072272333
1 T0086U          25274.68974213  .00079159  00000-0  90756-2 0  9994
2 T0086  86.3454  71.9183 0025182 338.2072  21.8078 14.85276469 70856
1 T0087U          25266.87361528  .00003223  00000-0  45678-2 0  9998
2 T0087  72.8154 312.5360 0723274 163.9730 198.5593 12.81206119271289
1 T0088U          25265.79803216  .00000048  00000-0  55313-3 0  9994
2 T0088  74.0233 285.7213 0137270 274.7453  83.7920 12.25957640260678
1 T0089U          25273.11201585  .00000688  00000-0  31923-3 0  9992
2 T0089  98.8411 221.3283 0035162 285.6038  74.1261 14.23728172303554
1 T0090U          25274.38398611  .00001282  00000-0  36120-3 0  9996
2 T0090  97.9921 143.3610 0011346 328.2522  31.7987 14.47284379308022
1 T0091U          25262.52175913  .00000273  00000-0  93971-3 0  9994
2 T0091  90.2447   4.0984 0033329 129.4591 230.9486 12.95467614274969
1 T0093U          25275.46942254  .00000246  00000-0  88162-3 0  9999
2 T0093  90.2444   0.3421 0028610 231.2557 128.6003 12.92531459275970
1 T0094U          25274.69085194  .00000071  00000-0  10454-2 0  9999
2 T0094 102.5694 250.4365 0120557  26.9480 333.7767 12.23896066261284
1 T0095U          25265.56410116  .00000511  00000-0  17366-2 0  9990
2 T0095  90.2519   5.8226 0027164  82.8111 277.6096 12.97217540275544
